[{"OBJECT_NAME":"IRIDIUM 103","OBJECT_ID":"2017-003B","EPOCH":"2026-03-09T15:54:14.180832","MEAN_MOTION":14.34218399,"ECCENTRICITY":0.00020548,"INCLINATION":86.3981,"RA_OF_ASC_NODE":130.0732,"ARG_OF_PERICENTER":88.2192,"MEAN_ANOMALY":271.9239,"EPHEMERIS_TYPE":0,"CLASSIFICATION_TYPE":"U","NORAD_CAT_ID":41918,"ELEMENT_SET_NO":999,"REV_AT_EPOCH":47896,"BSTAR":3.8019926e-5,"MEAN_MOTION_DOT":1.26e-6,"MEAN_MOTION_DDOT":0},{"OBJECT_NAME":"NOAA 16 DEB","OBJECT_ID":"2000-055NW","EPOCH":"2026-03-08T09:29:39.969600","MEAN_MOTION":14.32113002,"ECCENTRICITY":0.00128778,"INCLINATION":98.6327,"RA_OF_ASC_NODE":133.2487,"ARG_OF_PERICENTER":86.1822,"MEAN_ANOMALY":274.0833,"EPHEMERIS_TYPE":0,"CLASSIFICATION_TYPE":"U","NORAD_CAT_ID":41657,"ELEMENT_SET_NO":999,"REV_AT_EPOCH":51160,"BSTAR":0.0023667401,"MEAN_MOTION_DOT":6.331e-5,"MEAN_MOTION_DDOT":0}]
